[{"OBJECT_NAME":"STARLINK-32047","OBJECT_ID":"2024-183H","EPOCH":"2026-03-09T11:55:51.712320","MEAN_MOTION":15.30182907,"ECCENTRICITY":0.00011116,"INCLINATION":53.159,"RA_OF_ASC_NODE":143.2927,"ARG_OF_PERICENTER":117.2776,"MEAN_ANOMALY":242.8338,"EPHEMERIS_TYPE":0,"CLASSIFICATION_TYPE":"U","NORAD_CAT_ID":61516,"ELEMENT_SET_NO":999,"REV_AT_EPOCH":7962,"BSTAR":6.7349228e-5,"MEAN_MOTION_DOT":1.635e-5,"MEAN_MOTION_DDOT":0},{"OBJECT_NAME":"COSMOS 1328","OBJECT_ID":"1981-117A","EPOCH":"2026-03-09T17:51:53.113536","MEAN_MOTION":15.33902077,"ECCENTRICITY":0.00108717,"INCLINATION":82.4939,"RA_OF_ASC_NODE":350.453,"ARG_OF_PERICENTER":167.9725,"MEAN_ANOMALY":192.1779,"EPHEMERIS_TYPE":0,"CLASSIFICATION_TYPE":"U","NORAD_CAT_ID":12987,"ELEMENT_SET_NO":999,"REV_AT_EPOCH":41406,"BSTAR":0.00040501644,"MEAN_MOTION_DOT":0.00013342,"MEAN_MOTION_DDOT":0}]
